COSMOS 1892             
1 18421U 87088A   21185.68506961  .00000896  00000-0  42730-4 0  9998
2 18421  82.5001 255.1012 0015081 172.1112 188.0362 15.17693049842513
SL-14 R/B               
1 18749U 88001B   21185.94574603  .00000111  00000-0  10581-4 0  9993
2 18749  82.5141 359.1824 0020133 115.7787  44.3716 14.83264997788561
COSMOS 1933             
1 18958U 88020A   21185.85982302  .00000114  00000-0  61784-5 0  9990
2 18958  82.5299 116.2750 0009812 294.4444  65.5758 15.03947977792557
SL-3 R/B                
1 19046U 88032B   21185.91561755  .00000976  00000-0  76014-4 0  9991
2 19046  97.3851 195.6479 0036993 344.8713  15.1403 15.02949445794407
SL-16 R/B               
1 19120U 88039B   21185.90692439 -.00000089  00000-0 -19738-4 0  9991
2 19120  71.0158  80.3771 0019748  79.6776 280.6574 14.19220486715916
COSMOS 1953             
1 19210U 88050A   21185.86140187  .00001012  00000-0  66869-4 0  9999
2 19210  82.5156  38.5524 0011398 252.9066 107.0914 15.06297770779224
SL-8 R/B                
1 19257U 88053B   21185.93283425  .00000075  00000-0  33806-4 0  9997
2 19257  74.0491  17.6799 0021328 262.3685 201.7364 14.37525768730964
COSMOS 1975             
1 19573U 88093A   21185.91553579  .00000126  00000-0  67673-5 0  9997
2 19573  82.5194 353.6417 0012451 302.5113  57.4910 15.05200289761038
SL-14 R/B               
1 19574U 88093B   21185.79064617  .00000088  00000-0  78606-5 0  9999
2 19574  82.5311 202.5119 0020043 282.2393 251.5216 14.83375669747547
SL-16 R/B               
1 19650U 88102B   21185.92757804  .00000267  00000-0  15988-3 0  9998
2 19650  70.9991 145.6405 0012177  92.6634 267.5883 14.15805720685013
INTERCOSMOS 24          
1 20261U 89080A   21185.88594982  .00000056  00000-0  16225-4 0  9997
2 20261  82.6070 132.8001 1201081 285.3616  61.8099 12.56217839451608
SL-14 R/B               
1 20262U 89080C   21185.93437596  .00000096  00000-0  19371-4 0  9990
2 20262  82.5919 188.9226 1237691 124.9989 247.3692 12.48971886446736
DELTA 2 R/B(1)          
1 20303U 89085B   21185.89792479  .00003885  00000-0  11944-3 0  9996
2 20303  35.6392 124.7516 0091003 340.4426  19.2823 15.29313622727140
DELTA 1 R/B             
1 20323U 89089B   21186.22463022  .00000007  00000-0  10721-4 0  9995
2 20323  97.1222 277.7826 0073221 106.7331 254.1917 14.48407701668803
ARIANE 40 R/B           
1 20443U 90005H   21186.17980573  .00000028  00000-0  23935-4 0  9991
2 20443  98.5277 252.3092 0009201 283.5856  76.4306 14.38132661647384
DELTA 2 R/B(1)          
1 20453U 90008B   21186.05448734  .00001193  00000-0  67015-4 0  9991
2 20453  35.6247 158.5337 0277779 261.1814  95.7354 14.86583143668148
COSMOS 2058             
1 20465U 90010A   21185.70236440  .00000381  00000-0  29747-4 0  9995
2 20465  82.4894 265.4604 0015165 358.6214   1.4965 14.98231980685557
SL-14 R/B               
1 20466U 90010B   21186.18720077  .00000078  00000-0  69407-5 0  9994
2 20466  82.5033  68.5894 0021046 156.2822 203.9367 14.81428676696457
SL-14 R/B               
1 20511U 90018B   21185.92071222  .00000093  00000-0  92026-5 0  9995
2 20511  82.5228  16.9251 0016203 306.7247 167.1011 14.80083191669680
HST                     
1 20580U 90037B   21185.77664274  .00000650  00000-0  28363-4 0  9991
2 20580  28.4706 310.4569 0002474 249.2707 234.5314 15.09674844513638
SL-16 R/B               
1 20625U 90046B   21186.25497246 -.00000051  00000-0 -17821-5 0  9993
2 20625  70.9989 284.7031 0013618  12.2069 347.9381 14.14665694607007
COSMOS 2084             
1 20663U 90055A   21185.83896462  .00000008  00000-0  19039-4 0  9993
2 20663  62.7951 331.2706 0072756   9.4500 350.7942 14.92265689680417
SL-6 R/B(2)             
1 20666U 90055D   21185.89494665  .00000026  00000-0  20491-4 0  9995
2 20666  62.7843 246.5459 0100500  36.8431 323.9512 14.92512203682378
SL-8 R/B                
1 20775U 90078B   21185.81739361  .00002679  00000-0  12575-3 0  9997
2 20775  82.9265 270.9497 0568236  88.9051 277.7154 14.36022187560585
SL-8 R/B                
1 21088U 91006B   21185.92173512  .00000117  00000-0  10292-3 0  9998
2 21088  82.9424   0.8586 0023498 137.8468 333.4869 13.77170988528855
OKEAN-3                 
1 21397U 91039A   21186.20069099  .00000370  00000-0  32919-4 0  9995
2 21397  82.5212 172.8337 0016986 333.6324  26.4029 14.93118098630432
COSMOS 2151             
1 21422U 91042A   21185.75074835  .00000208  00000-0  17824-4 0  9999
2 21422  82.5010 278.9321 0015073  40.9636 319.2713 14.92269760607842
SL-14 R/B               
1 21423U 91042B   21185.90906515  .00000101  00000-0  10293-4 0  9991
2 21423  82.4937  19.4468 0019130  86.6513 273.6887 14.79832703600227
ERS-1                   
1 21574U 91050A   21186.17257909  .00000029  00000-0  24418-4 0  9996
2 21574  98.6484 146.7887 0031997 228.1551 131.6903 14.37803571570097
ARIANE 40 R/B           
1 21610U 91050F   21185.82257215  .00000022  00000-0  20262-4 0  9994
2 21610  98.4225 256.3074 0003325 169.6723 301.9472 14.40954357572761
INTERCOSMOS 25          
1 21819U 91086A   21185.70397647  .00000131  00000-0  22010-4 0  9999
2 21819  82.5823 257.2144 1516032 177.3267 183.7215 12.05257252290332
SL-8 R/B                
1 21876U 92008B   21186.19177941  .00000024  00000-0  90365-5 0  9994
2 21876  82.9275  97.9545 0033688 223.9223 300.9674 13.75681094474726
SL-8 R/B                
1 21938U 92020B   21185.93586463  .00000100  00000-0  88225-4 0  9997
2 21938  82.9305 342.5986 0029835  28.9110  82.2049 13.75289135466248
COSMOS 2219             
1 22219U 92076A   21186.16993982 -.00000210  00000-0 -86253-4 0  9998
2 22219  71.0616 348.2129 0020792 288.5074  71.3789 14.13667048477229
SL-16 R/B               
1 22220U 92076B   21185.78600535  .00000244  00000-0  14647-3 0  9998
2 22220  70.9985 186.7436 0013061 189.5781 343.8409 14.16471788479810
COSMOS 2221             
1 22236U 92080A   21186.19057292  .00000237  00000-0  22981-4 0  9995
2 22236  82.5086 101.9778 0017791 127.5797 232.7040 14.88068917547233
SL-16 R/B               
1 22285U 92093B   21185.87455461 -.00000224  00000-0 -90928-4 0  9991
2 22285  71.0217 350.2223 0003530   2.3278 357.7861 14.15059852471402
COSMOS 2228             
1 22286U 92094A   21185.88454470  .00000244  00000-0  23662-4 0  9994
2 22286  82.5202  58.9608 0019596 249.5875 110.3238 14.88293133521320
SL-16 R/B               
1 22566U 93016B   21185.78192127 -.00000033  00000-0  75220-5 0  9992
2 22566  71.0051 203.2011 0009012  32.9927 327.1756 14.14976809460415
COSMOS 2242             
1 22626U 93024A   21185.83294128  .00000227  00000-0  21911-4 0  9999
2 22626  82.5222  87.2970 0017358 249.9033 110.0317 14.88143988525704
SL-16 R/B               
1 22803U 93059B   21185.91941261  .00000209  00000-0  12808-3 0  9994
2 22803  70.9906  13.2438 0019245 290.9935  68.9129 14.16837277437473
ARIANE 40 R/B           
1 22830U 93061H   21185.78646246 -.00000009  00000-0  13517-4 0  9995
2 22830  98.7123 243.3951 0009751 281.8827  78.1262 14.31484782449524
COSMOS 2278             
1 23087U 94023A   21186.15643377  .00000081  00000-0  67491-4 0  9992
2 23087  71.0519 147.7259 0007398 126.0779 234.1029 14.13823168403532
SL-16 R/B               
1 23088U 94023B   21185.93272327 -.00000306  00000-0 -13399-3 0  9990
2 23088  71.0009  58.3213 0003715 333.8896  26.2038 14.14692262404408
SL-16 R/B               
1 23343U 94074B   21186.17839181  .00000041  00000-0  13080-4 0  9996
2 23343  97.9447 240.5411 0006952   9.3648  57.7060 14.76887748435115
SL-16 R/B               
1 23405U 94077B   21186.15227421 -.00000291  00000-0 -12475-3 0  9999
2 23405  70.9834 345.7796 0004742 253.9117 106.1483 14.15239931374750
ERS-2                   
1 23560U 95021A   21185.86395421  .00001284  00000-0  56736-4 0  9994
2 23560  98.5468  38.4219 0002631 329.0390  31.0688 15.24016732400341
ARIANE 40+ R/B          
1 23561U 95021B   21186.14832858  .00000038  00000-0  27537-4 0  9990
2 23561  98.6730 236.1222 0006742 188.9579 232.2767 14.38033756373794
SL-16 R/B               
1 23705U 95058B   21185.92458892 -.00000024  00000-0  12286-4 0  9998
2 23705  71.0194 166.4715 0013616 212.3957 147.6332 14.15147951326080
SL-16 R/B               
1 24298U 96051B   21185.72156097 -.00000104  00000-0 -29817-4 0  9998
2 24298  70.8271 184.5225 0014991 154.3896 205.7969 14.12436777280335
ORBVIEW 2 (SEASTAR)     
1 24883U 97037A   21185.94727910  .00000046  00000-0  32663-4 0  9991
2 24883  98.6445 304.0043 0003351  69.2088 290.9455 14.33621399263514
SL-16 R/B               
1 25400U 98043G   21186.05144840 -.00000025  00000-0  80862-5 0  9996
2 25400  98.6406 121.6386 0008997 304.5911  55.4420 14.25478505195757
SL-16 R/B               
1 25407U 98045B   21185.91536829  .00000040  00000-0  44399-4 0  9991
2 25407  71.0102 173.7946 0005399 118.3858 241.7810 14.15842138185215
ISS (ZARYA)             
1 25544U 98067A   21185.13411483  .00001998  00000-0  44753-4 0  9996
2 25544  51.6448 258.9183 0002195 136.4552 306.9141 15.48767231291223
CZ-4B R/B               
1 25732U 99025C   21186.14260186 -.00000007  00000-0  18550-4 0  9991
2 25732  98.9004 222.6386 0037026 197.7644 232.0840 14.17695444146180
OKEAN-O                 
1 25860U 99039A   21185.94477882  .00000071  00000-0  17704-4 0  9998
2 25860  98.1811 216.9323 0001912  89.0826 271.0602 14.76743780181963
SL-16 R/B               
1 25861U 99039B   21185.94909916  .00000058  00000-0  15386-4 0  9996
2 25861  98.2029 201.6579 0015917  14.4171  47.8816 14.78648584184142
DELTA 2 R/B             
1 25876U 99041E   21185.84404316 -.00000089  00000-0  26294-4 0  9993
2 25876  51.7629 240.6290 0531354  19.5075 342.5370 14.04580558122369
HELIOS 1B               
1 25977U 99064A   21185.90899097  .00000066  00000-0  15328-4 0  9991
2 25977  98.3176   1.1142 0001644 138.6501 221.4835 14.82565436431786
